QIANFAN-25              
1 61558U 24185G   25243.23195510  .00000577  00000+0  34547-3 0  9991
2 61558  88.9744  89.9181 0005763 261.8074  98.2454 14.05772821 54965
QIANFAN-26              
1 61559U 24185H   25243.25736926  .00000284  00000+0  27168-3 0  9992
2 61559  88.9758  90.9337 0005046 345.2990  14.8028 13.77731687 54429
QIANFAN-27              
1 61560U 24185J   25243.26553213  .00000612  00000+0  24511-3 0  9995
2 61560  88.9751  89.0895 0005851 270.9715  89.0809 14.27146279 55408
QIANFAN-28              
1 61561U 24185K   25243.22378089  .00001067  00000+0  42702-3 0  9995
2 61561  88.9767  89.0900 0004907 272.8634  87.1999 14.27723939 55408
QIANFAN-29              
1 61562U 24185L   25243.27145611  .00000194  00000+0  28265-3 0  9992
2 61562  88.9736  92.0160 0010201   1.7623 358.3562 13.50959734 53820
QIANFAN-30              
1 61563U 24185M   25243.24212662  .00000193  00000+0  28536-3 0  9991
2 61563  88.9755  91.5048 0007177 349.9071  10.1934 13.49937824 54105
QIANFAN-31              
1 61564U 24185N   25243.22836260  .00000145  00000+0  18466-3 0  9994
2 61564  88.9740  91.4722 0006783 348.7775  11.3228 13.57910857 54114
QIANFAN-32              
1 61565U 24185P   25243.26799111  .00000189  00000+0  27609-3 0  9999
2 61565  88.9799  91.6051 0009830  12.0140 348.1244 13.50690620 54079
